[{"OBJECT_NAME":"HAWK-2A","OBJECT_ID":"2021-006CW","EPOCH":"2026-03-09T16:18:25.817472","MEAN_MOTION":15.33304498,"ECCENTRICITY":0.00064498,"INCLINATION":97.2459,"RA_OF_ASC_NODE":115.6184,"ARG_OF_PERICENTER":187.1463,"MEAN_ANOMALY":172.9689,"EPHEMERIS_TYPE":0,"CLASSIFICATION_TYPE":"U","NORAD_CAT_ID":47505,"ELEMENT_SET_NO":999,"REV_AT_EPOCH":28424,"BSTAR":0.0002543136,"MEAN_MOTION_DOT":8.113e-5,"MEAN_MOTION_DDOT":0},{"OBJECT_NAME":"STARLINK-2497","OBJECT_ID":"2021-040AD","EPOCH":"2026-03-09T14:41:13.445952","MEAN_MOTION":15.3018822,"ECCENTRICITY":0.0001813,"INCLINATION":53.1606,"RA_OF_ASC_NODE":178.4891,"ARG_OF_PERICENTER":58.8025,"MEAN_ANOMALY":301.3153,"EPHEMERIS_TYPE":0,"CLASSIFICATION_TYPE":"U","NORAD_CAT_ID":48455,"ELEMENT_SET_NO":999,"REV_AT_EPOCH":26666,"BSTAR":0.00036088,"MEAN_MOTION_DOT":0.0001034,"MEAN_MOTION_DDOT":0}]
