HAWK-2A                 
1 47505U 21006CW  26068.67946547  .00008113  00000+0  25431-3 0  9990
2 47505  97.2459 115.6184 0006450 187.1463 172.9689 15.33304498284242
STARLINK-2497           
1 48455U 21040AD  26068.61196118  .00010340  00000+0  36088-3 0  9993
2 48455  53.1606 178.4891 0001813  58.8025 301.3153 15.30188220266660
